STARLINK-5135           
1 54005C 22125AT  26120.05881944  .00039962  00000+0  25063-2 0  1208
2 54005  53.2163 343.2369 0001938  85.8094 195.8877 15.08812638    19
STARLINK-5096           
1 54006C 22125AU  26120.00395833 -.00002265  00000+0 -14201-3 0  1202
2 54006  53.2171 343.3374 0001423  93.7020 329.9207 15.08840139    16
STARLINK-5132           
1 54007C 22125AV  26120.04284722  .00073181  00000+0  45863-2 0  1201
2 54007  53.2163 343.2331 0001453  89.7112 145.2270 15.08823352    17
STARLINK-5145           
1 54008C 22125AW  26120.03173611  .00028036  00000+0  17582-2 0  1201
2 54008  53.2166 333.2809 0001412  80.4023 109.1653 15.08821446    10
STARLINK-5099           
1 54009C 22125AX  26120.04076389  .00040022  00000+0  25097-2 0  1206
2 54009  53.2165 343.2034 0001779  91.0303 152.6019 15.08816943    11
STARLINK-5127           
1 54010C 22125AY  26120.05812500  .00028683  00000+0  17988-2 0  1201
2 54010  53.2162 333.0934 0001384  86.4314 286.6071 15.08820216    12
STARLINK-5124           
1 54011C 22125AZ  26120.03243056  .00023865  00000+0  14965-2 0  1203
2 54011  53.2159 333.7859 0001401  83.4127 209.5836 15.08827353    13
STARLINK-5126           
1 54012C 22125BA  26120.04145833  .00036119  00000+0  22653-2 0  1208
2 54012  53.2172 333.4717 0001293  83.1918  39.0615 15.08814305    17
STARLINK-5098           
1 54013C 22125BB  26120.00743056  .00025100  00000+0  15741-2 0  1204
2 54013  53.2171 333.7043 0001357  85.5351 171.7208 15.08822091    13
STARLINK-5055           
1 54015C 22125BD  26119.97687500  .00010272  00000+0  64417-3 0  1198
2 54015  53.2173 333.7985 0001434  90.0504  21.1699 15.08831862    17
STARLINK-5195           
1 54051C 22136A   26120.04354167 -.00008771  00000+0 -54987-3 0  1206
2 54051  53.2140 113.8304 0001327  83.0370 260.2763 15.08850149    14
STARLINK-5189           
1 54052C 22136B   26120.01298611 -.00035281  00000+0 -22121-2 0  1205
2 54052  53.2154  73.5312 0001520  86.0510 351.4805 15.08860266    16
STARLINK-5176           
1 54053C 22136C   26120.04145833 -.00007880  00000+0 -49396-3 0  1204
2 54053  53.2140 113.8003 0001334  79.9564 271.9540 15.08856314    11
STARLINK-5163           
1 54054C 22136D   26120.01020833  .00001822  00000+0  11424-3 0  1203
2 54054  53.2139 113.8606 0001592  78.0746 144.1518 15.08844727    18
STARLINK-5158           
1 54055C 22136E   26120.05881944 -.00015863  00000+0 -99462-3 0  1206
2 54055  53.2136 113.6814 0001244  70.1686  36.2253 15.08850375    18
STARLINK-5226           
1 54056C 22136F   26120.04770833 -.00010713  00000+0 -67175-3 0  1205
2 54056  53.2142 113.1518 0001429  84.0553 262.2486 15.08845017    10
STARLINK-5167           
1 54058C 22136H   26119.99840278  .00005375  00000+0  33709-3 0  1190
2 54058  53.2140 113.7926 0001273  92.3581 125.7371 15.08829651    11
STARLINK-5173           
1 54059C 22136J   26120.04909722 -.00013763  00000+0 -86328-3 0  1208
2 54059  53.2141 113.6078 0001388  90.8351  22.7876 15.08835993    17
STARLINK-5169           
1 54060C 22136K   26120.03104167  .00000472  00000+0  29573-4 0  1200
2 54060  53.2158  83.2967 0001826  75.6018 165.1558 15.08895511    15
STARLINK-5209           
1 54061C 22136L   26120.03659722 -.00028425  00000+0 -17825-2 0  1208
2 54061  53.2156  78.2250 0001586  85.5065 192.8687 15.08851603    12
STARLINK-5170           
1 54062C 22136M   26120.05326389 -.00015290  00000+0 -95873-3 0  1207
2 54062  53.2143 113.5072 0001150  79.3946  96.9313 15.08849333    17
STARLINK-5172           
1 54064C 22136P   26120.03937500 -.00029546  00000+0 -18528-2 0  1200
2 54064  53.2153  68.7820 0001413  89.3921 298.8075 15.08851615    12
STARLINK-5187           
1 54065C 22136Q   26120.03868056 -.00008037  00000+0 -50419-3 0  1208
2 54065  53.2147 113.4570 0000939  92.7545  64.4353 15.08828663    11
STARLINK-5151           
1 54066C 22136R   26120.02548611 -.00001885  00000+0 -11820-3 0  1207
2 54066  53.2144 113.5601 0001301  89.6616 335.7561 15.08849107    14
STARLINK-5174           
1 54067C 22136S   26119.98034722  .00015838  00000+0  99291-3 0  1191
2 54067  53.2147 113.6407 0001351  74.3949 165.7938 15.08840150    16
STARLINK-5222           
1 54068C 22136T   26120.04979167 -.00014727  00000+0 -92320-3 0  1208
2 54068  53.2147 113.3665 0001338  78.2698 159.3072 15.08857149    13
STARLINK-5181           
1 54070C 22136V   26120.03104167 -.00004298  00000+0 -26947-3 0  1204
2 54070  53.2147 113.3341 0001373  86.5484 109.1940 15.08844850    13
STARLINK-5168           
1 54071C 22136W   26120.01506944 -.00001695  00000+0 -10641-3 0  1204
2 54071  53.2145 113.3664 0001072  66.2838  62.6804 15.08802730    17
STARLINK-5146           
1 54073C 22136Y   26120.05881944 -.00025631  00000+0 -16069-2 0  1201
2 54073  53.2149 108.1747 0001286  81.6477 292.5890 15.08859750    17
STARLINK-5192           
1 54074C 22136Z   26120.06020833 -.00015968  00000+0 -10012-2 0  1209
2 54074  53.2142 113.1243 0001371  76.2508 318.0547 15.08850378    18
STARLINK-5212           
1 54075C 22136AA  26120.01229167 -.00001886  00000+0 -11830-3 0  1200
2 54075  53.2150 108.3406 0001431  83.5679  57.8642 15.08833889    14
STARLINK-5201           
1 54076C 22136AB  26120.00326389  .00006981  00000+0  43756-3 0  1205
2 54076  53.2139 113.9658 0001381  79.1439  60.0119 15.08851408    14
STARLINK-5171           
1 54077C 22136AC  26120.00256944 -.00021868  00000+0 -13710-2 0  1204
2 54077  53.2157  89.4027 0001517  83.0852 289.5991 15.08856438    10
STARLINK-5175           
1 54079C 22136AE  26120.02756944 -.00015259  00000+0 -95652-3 0  1206
2 54079  53.2146 103.8787 0001466  93.2615 178.2391 15.08858787    14
STARLINK-5160           
1 54080C 22136AF  26120.01368056  .01040700  00000+0  21848-1 0  1202
2 54080  53.2168 106.3692 0001123  92.4059 350.6467 15.44258191    19
STARLINK-5210           
1 54082C 22136AH  26120.04215278 -.00018594  00000+0 -11658-2 0  1200
2 54082  53.2151 103.7743 0001512  90.1386 280.6252 15.08854887    19
STARLINK-5178           
1 54083C 22136AJ  26120.00118056 -.00003233  00000+0 -20270-3 0  1208
2 54083  53.2147 103.8407 0001265  83.7573 124.4542 15.08846094    12
STARLINK-5183           
1 54084C 22136AK  26120.03451389 -.00016798  00000+0 -10532-2 0  1200
2 54084  53.2149 103.7689 0001380  56.5945 292.7213 15.08851692    19
STARLINK-5166           
1 54085C 22136AL  26119.98520833  .00004014  00000+0  25165-3 0  1197
2 54085  53.2147 103.8804 0001546  88.2708  47.9569 15.08843330    15
STARLINK-5211           
1 54086C 22136AM  26120.01229167 -.00021540  00000+0 -13505-2 0  1201
2 54086  53.2145  88.8240 0001535  84.6106 186.4560 15.08854737    13
STARLINK-5184           
1 54087C 22136AN  26120.05187500 -.00024257  00000+0 -15210-2 0  1203
2 54087  53.2148 103.1867 0001316  83.9219 260.0821 15.08851606    18
STARLINK-5153           
1 54088C 22136AP  26120.00743056 -.00005312  00000+0 -33307-3 0  1202
2 54088  53.2148 103.8507 0001081  77.3096 144.8397 15.08845937    13
STARLINK-5143           
1 54089C 22136AQ  26120.06020833 -.00023908  00000+0 -14990-2 0  1207
2 54089  53.2135 103.3825 0001412  86.4784 182.6596 15.08853527    16
STARLINK-5177           
1 54090C 22136AR  26120.03034722 -.00015056  00000+0 -94409-3 0  1207
2 54090  53.2141 103.5514 0001324  81.8088   4.9087 15.08848356    15
STARLINK-5221           
1 54091C 22136AS  26119.97826389  .00006613  00000+0  41460-3 0  1191
2 54091  53.2147 103.4721 0001566  80.6755 243.3015 15.08839251    11
STARLINK-5190           
1 54092C 22136AT  26120.05395833  .00045955  00000+0  30446-3 0  1204
2 54092  53.1745 280.6213 0000514 169.7028 182.9098 15.74814943    16
STARLINK-5213           
1 54093C 22136AU  26120.04423611 -.00020411  00000+0 -12799-2 0  1202
2 54093  53.2143 103.3289 0001253  84.2208 158.1908 15.08849661    13
STARLINK-5193           
1 54095C 22136AW  26120.02756944 -.00015609  00000+0 -97871-3 0  1208
2 54095  53.2145 103.3257 0001368  94.9052  96.9836 15.08849672    15
STARLINK-5188           
1 54096C 22136AX  26120.01993056 -.00012260  00000+0 -76900-3 0  1205
2 54096  53.2141 103.4774 0001104  95.1530 355.0772 15.08834841    19
STARLINK-5197           
1 54097C 22136AY  26120.01506944 -.00031864  00000+0 -19978-2 0  1204
2 54097  53.2152  78.6385 0001312  91.4306 289.8360 15.08860641    18
STARLINK-5217           
1 54098C 22136AZ  26119.98659722  .00003816  00000+0  23917-3 0  1193
2 54098  53.2147 104.1744 0001975  96.1737 247.3651 15.08851171    12
STARLINK-5198           
1 54099C 22136BA  26119.99423611  .00000381  00000+0  23892-4 0  1198
2 54099  53.2148 103.3585 0001417  89.2641 341.5389 15.08843459    11
STARLINK-5185           
1 54100C 22136BB  26120.05881944 -.00026263  00000+0 -16469-2 0  1208
2 54100  53.2143 103.2248 0001332  83.6596 258.0336 15.08852047    14
STARLINK-5204           
1 54101C 22136BC  26120.03104167 -.00103680  00000+0 -64907-2 0  1201
2 54101  53.2157  88.4007 0001672  84.0341 104.0022 15.08949966    16
STARLINK-5179           
1 54102C 22136BD  26120.04145833 -.00018806  00000+0 -11791-2 0  1206
2 54102  53.2145 103.6092 0000619  79.6728   7.4692 15.08853934    15
STARLINK-5200           
1 54103C 22136BE  26119.98659722 -.00018539  00000+0 -11623-2 0  1190
2 54103  53.2155  83.6238 0001569  86.5007 212.6320 15.08855671    16
STARLINK-5203           
1 54104C 22136BF  26120.03104167 -.00033063  00000+0 -20736-2 0  1203
2 54104  53.2149  68.1950 0001432  90.0185 213.2999 15.08849931    16
STARLINK-5290           
1 54157C 22141A   26120.02826389  .00025730  00000+0  16133-2 0  1209
2 54157  53.2133 143.6027 0001303  88.3589  81.9002 15.08828377    12
STARLINK-5297           
1 54158C 22141B   26120.00673611  .00037938  00000+0  23786-2 0  1201
2 54158  53.2144 143.8809 0001408  93.2016 225.1607 15.08825494    11
